[{"OBJECT_NAME":"STARLINK-35273","OBJECT_ID":"2025-218Q","EPOCH":"2026-03-09T12:44:58.460352","MEAN_MOTION":15.05645582,"ECCENTRICITY":0.00022559,"INCLINATION":97.6026,"RA_OF_ASC_NODE":292.7636,"ARG_OF_PERICENTER":78.5723,"MEAN_ANOMALY":281.5758,"EPHEMERIS_TYPE":0,"CLASSIFICATION_TYPE":"U","NORAD_CAT_ID":65805,"ELEMENT_SET_NO":999,"REV_AT_EPOCH":2494,"BSTAR":0.00038239935,"MEAN_MOTION_DOT":5.461e-5,"MEAN_MOTION_DDOT":0},{"OBJECT_NAME":"TITAN 4B DEB","OBJECT_ID":"2000-047E","EPOCH":"2026-03-09T14:16:43.154688","MEAN_MOTION":14.95842861,"ECCENTRICITY":0.0051888,"INCLINATION":67.9936,"RA_OF_ASC_NODE":132.6415,"ARG_OF_PERICENTER":76.3882,"MEAN_ANOMALY":356.6211,"EPHEMERIS_TYPE":0,"CLASSIFICATION_TYPE":"U","NORAD_CAT_ID":40528,"ELEMENT_SET_NO":999,"REV_AT_EPOCH":59773,"BSTAR":6.4855e-5,"MEAN_MOTION_DOT":6.21e-6,"MEAN_MOTION_DDOT":0}]
